SL-3 R/B                
1 19046U 88032B   23363.56744255  .00004627  00000+0  30108-3 0  9999
2 19046  97.4338 345.4699 0034861 122.7763 237.6832 15.07943806930888
SL-16 R/B               
1 19120U 88039B   23363.33281108 -.00000032  00000+0  75238-5 0  9999
2 19120  71.0152 322.7030 0020154 133.8740 226.4054 14.19365909844664
COSMOS 1953             
1 19210U 88050A   23363.10975559  .00004692  00000+0  26713-3 0  9994
2 19210  82.5156 234.5609 0016825  44.7784 315.4801 15.12489916915987
SL-8 R/B                
1 19257U 88053B   23363.57948868  .00000401  00000+0  14103-3 0  9996
2 19257  74.0471 148.1049 0020001 170.6576 263.0667 14.38014514861401
COSMOS 1975             
1 19573U 88093A   23363.57887463  .00005085  00000+0  29674-3 0  9996
2 19573  82.5272 191.2756 0016640  85.9691 274.3441 15.11616764897725
SL-14 R/B               
1 19574U 88093B   23363.63150741  .00000721  00000+0  83110-4 0  9994
2 19574  82.5317  73.1596 0021761 162.6436 310.4010 14.84174402882158
SL-16 R/B               
1 19650U 88102B   23363.49571283  .00000331  00000+0  19183-3 0  9997
2 19650  71.0000  37.0112 0013306 159.4740 200.6920 14.15932771813470
INTERCOSMOS 24          
1 20261U 89080A   23363.21500059  .00001809  00000+0  53579-3 0  9994
2 20261  82.6058 265.0656 1197483 350.0073   7.8982 12.57483769565971
SL-14 R/B               
1 20262U 89080C   23363.38798395  .00000272  00000+0  80214-4 0  9995
2 20262  82.5946 327.4274 1233526 215.1293 136.2115 12.49555666560034
DELTA 1 R/B             
1 20323U 89089B   23363.47205106  .00000574  00000+0  15480-3 0  9992
2 20323  97.0964 319.8877 0071925 129.2440 231.5170 14.49191234779624
ARIANE 40 R/B           
1 20443U 90005H   23363.16494277  .00000450  00000+0  16053-3 0  9990
2 20443  98.4176  67.1992 0011460  92.5829 267.6670 14.38736778777505
DELTA 2 R/B(1)          
1 20453U 90008B   23363.58518566  .00008160  00000+0  34677-3 0  9996
2 20453  35.6190 150.6870 0222899 357.3953   2.5597 15.02736135803792
COSMOS 2058             
1 20465U 90010A   23363.37844603  .00005115  00000+0  38840-3 0  9996
2 20465  82.4882 109.9609 0014511 162.1770 197.9967 15.01922243821571
SL-14 R/B               
1 20466U 90010B   23363.28396736  .00000787  00000+0  95477-4 0  9996
2 20466  82.5034 299.2663 0021762  61.2662 299.0736 14.82174820809718
SL-14 R/B               
1 20511U 90018B   23363.23999167  .00000627  00000+0  78161-4 0  9991
2 20511  82.5228 251.4595 0016458 201.7275 280.0358 14.80803653803912
HST                     
1 20580U 90037B   23363.56245611  .00005672  00000+0  28292-3 0  9996
2 20580  28.4705  46.1039 0002131 342.4500 142.8347 15.15356653651103
SL-16 R/B               
1 20625U 90046B   23363.56269726 -.00000207  00000+0 -82392-4 0  9992
2 20625  70.9974 180.1372 0011914  80.6330 279.6139 14.14791869735070
COSMOS 2084             
1 20663U 90055A   23363.58041829  .00003832  00000+0  29889-3 0  9994
2 20663  62.7901 171.4636 0126350 104.2670 257.2496 14.96844399816017
SL-6 R/B(2)             
1 20666U 90055D   23363.59111076  .00002983  00000+0  24736-3 0  9992
2 20666  62.7851  85.0897 0107564 126.0753 235.0364 14.96747314817987
SL-8 R/B                
1 20775U 90078B   23363.59188970  .00011578  00000+0  47806-3 0  9998
2 20775  82.9170 232.1793 0494627 119.9253 245.2027 14.54519390691480
SL-8 R/B                
1 21088U 91006B   23363.62266536  .00000148  00000+0  13321-3 0  9993
2 21088  82.9420  45.9060 0023813 117.4544 354.7650 13.77302427653799
OKEAN-3                 
1 21397U 91039A   23363.58159886  .00002543  00000+0  21937-3 0  9999
2 21397  82.5195  28.3464 0017418 159.4166 200.7762 14.96795638744865
COSMOS 2151             
1 21422U 91042A   23363.46802359  .00002685  00000+0  24401-3 0  9995
2 21422  82.4997 133.3537 0012621 236.4565 123.5451 14.94843099743275
SL-14 R/B               
1 21423U 91042B   23363.45175775  .00000639  00000+0  80330-4 0  9991
2 21423  82.4936 250.8367 0017347 357.2371   2.8744 14.80530405734466
ERS-1                   
1 21574U 91050A   23363.58135750  .00000389  00000+0  14180-3 0  9991
2 21574  98.7638 346.5820 0033563  58.1984 302.2464 14.38334312700522
ARIANE 40 R/B           
1 21610U 91050F   23363.15032549  .00000522  00000+0  17348-3 0  9995
2 21610  98.3147  64.8295 0002895   1.6453 358.4745 14.41630740703456
INTERCOSMOS 25          
1 21819U 91086A   23363.59358486  .00001472  00000+0  28669-3 0  9997
2 21819  82.6044  72.8875 1504994  38.7827 331.2112 12.08044892399799
SL-8 R/B                
1 21876U 92008B   23363.47913779  .00000080  00000+0  66454-4 0  9993
2 21876  82.9271 143.5371 0034256 210.4333 212.0564 13.75784853599245
SL-8 R/B                
1 21938U 92020B   23363.58074402  .00000048  00000+0  34095-4 0  9999
2 21938  82.9301  28.7002 0029492  16.5373  97.1639 13.75388037591003
COSMOS 2219             
1 22219U 92076A   23363.12937598 -.00000209  00000+0 -85358-4 0  9996
2 22219  71.0595 253.3683 0018998 336.9877  23.0392 14.13812317605071
SL-16 R/B               
1 22220U 92076B   23363.61841994  .00000326  00000+0  18712-3 0  9993
2 22220  71.0009  75.5123 0014853 241.6016 223.0221 14.16613967608371
COSMOS 2221             
1 22236U 92080A   23363.35644673  .00002859  00000+0  28806-3 0  9999
2 22236  82.5074 323.3519 0015882   3.1621 356.9695 14.90742366661172
SL-16 R/B               
1 22285U 92093B   23363.13946328  .00000371  00000+0  21520-3 0  9998
2 22285  71.0213 246.6468 0002060  88.5485 271.5874 14.15216941599749
COSMOS 2228             
1 22286U 92094A   23363.54907032  .00002500  00000+0  24833-3 0  9990
2 22286  82.5202 280.8784 0021762 107.7604 252.5992 14.91158156656418
SL-16 R/B               
1 22566U 93016B   23363.59993028  .00000253  00000+0  15514-3 0  9990
2 22566  71.0078  97.4408 0008196 106.1432 254.0593 14.15092511588838
COSMOS 2242             
1 22626U 93024A   23363.34693186  .00002734  00000+0  27401-3 0  9995
2 22626  82.5217 309.8026 0019860 109.6888 250.6476 14.90869898660753
SL-16 R/B               
1 22803U 93059B   23363.17609351  .00000179  00000+0  11266-3 0  9995
2 22803  70.9902 261.0569 0017727 343.9799  16.0762 14.16983400565982
ARIANE 40 R/B           
1 22830U 93061H   23363.16559761  .00000354  00000+0  14836-3 0  9997
2 22830  98.5947  67.6584 0011763 129.5943 230.6281 14.31950614579351
COSMOS 2278             
1 23087U 94023A   23363.56298930 -.00000173  00000+0 -66431-4 0  9993
2 23087  71.0537  50.7820 0008861 189.9733 170.1215 14.14027811531544
SL-16 R/B               
1 23088U 94023B   23363.30052236 -.00000186  00000+0 -71956-4 0  9995
2 23088  71.0005 313.6294 0001013  35.2151 324.9038 14.14808237532733
SL-16 R/B               
1 23343U 94074B   23363.59498944  .00000678  00000+0  10145-3 0  9992
2 23343  97.8138  46.9790 0005649 312.9441 167.1571 14.77773050568868
SL-16 R/B               
1 23405U 94077B   23363.09841049 -.00000127  00000+0 -40576-4 0  9990
2 23405  70.9823 238.6193 0004941 287.2026  72.8556 14.15355132502800
ERS-2                   
1 23560U 95021A   23363.54330217  .00153001  00000+0  12004-2 0  9993
2 23560  98.5216   4.2781 0003772  77.2763 282.8917 15.71064922539474
ARIANE 40+ R/B          
1 23561U 95021B   23363.61489414  .00000453  00000+0  16218-3 0  9990
2 23561  98.5514  65.9374 0007150  26.9656 102.3083 14.38653341504017
SL-16 R/B               
1 23705U 95058B   23363.56165660  .00000369  00000+0  21381-3 0  9991
2 23705  71.0229  61.9474 0014742 261.7804  98.1647 14.15276492454499
SL-16 R/B               
1 24298U 96051B   23363.55500885 -.00000113  00000+0 -34520-4 0  9993
2 24298  70.8196  69.0297 0018044 241.5257 118.4045 14.12510628408526
ORBVIEW 2 (SEASTAR)     
1 24883U 97037A   23363.38808919  .00000560  00000+0  21562-3 0  9993
2 24883  98.7493 135.9530 0001312 249.2790 110.8254 14.34301137393556
SL-16 R/B               
1 25400U 98043G   23363.44326294  .00000123  00000+0  70403-4 0  9999
2 25400  98.7283 300.0804 0009918 174.3880 185.7412 14.25682139324809
SL-16 R/B               
1 25407U 98045B   23363.60670087 -.00000182  00000+0 -68047-4 0  9996
2 25407  71.0119  65.9498 0007258 186.1997 173.9038 14.15960445313695
ISS (ZARYA)             
1 25544U 98067A   23363.69831336  .00019742  00000+0  35457-3 0  9995
2 25544  51.6430  80.0897 0003230 327.3857 132.1376 15.49874161432116
CZ-4B R/B               
1 25732U 99025C   23363.58039220  .00000102  00000+0  70730-4 0  9993
2 25732  98.7781  45.9081 0038127 124.0682 357.5483 14.17901054274620
OKEAN-O                 
1 25860U 99039A   23363.57129875  .00001032  00000+0  15035-3 0  9994
2 25860  98.0628  51.0502 0001775  78.4385 281.7025 14.77988530315954
SL-16 R/B               
1 25861U 99039B   23363.57492234  .00000833  00000+0  11800-3 0  9991
2 25861  98.1142  43.0892 0014794 334.3145  25.7330 14.79717509318308
DELTA 2 R/B             
1 25876U 99041E   23363.08112359  .00001328  00000+0  26018-3 0  9990
2 25876  51.7629 252.7233 0521372 150.1537 213.0236 14.07237717249951
HELIOS 1B               
1 25977U 99064A   23363.59753996  .00001286  00000+0  16187-3 0  9990
2 25977  98.2669 224.3451 0002202 114.7214 245.4228 14.83867993566315
TERRA                   
1 25994U 99068A   23363.62133094  .00000710  00000+0  15902-3 0  9993
2 25994  98.0727  66.9639 0002381 144.0489  16.1218 14.59510862278161
SL-16 R/B               
1 26070U 00006B   23363.41518595  .00000381  00000+0  21872-3 0  9990
2 26070  71.0028 342.3642 0018163 315.7471  44.2198 14.15592407235158
TITAN 4B R/B            
1 26474U 00047B   23363.57400399  .00004582  00000+0  36240-3 0  9994
2 26474  67.9939 117.9031 0053462 221.3866 138.3224 15.00435943272354
ENVISAT                 
1 27386U 02009A   23363.55385828  .00000202  00000+0  79901-4 0  9991
2 27386  98.2593 325.8161 0001178  83.9827  34.4577 14.38472599143970
